SL-16 R/B               
1 28353U 04021B   25205.82976741 -.00000307  00000+0 -13496-3 0  9993
2 28353  71.0023 350.6589 0004670 357.0692   3.0402 14.14553599 90612
CZ-4B R/B               
1 28415U 04035C   25205.63256457  .00008152  00000+0  32678-3 0  9998
2 28415  97.3775 237.9813 0036824  57.1715 303.3060 15.24639747145117
CZ-2C R/B               
1 28480U 04046B   25205.80192193  .00000168  00000+0  77026-4 0  9993
2 28480  98.1922 130.0236 0140844 108.6060 253.0477 14.26846499 76006
ARIANE 5 R/B            
1 28499U 04049H   25206.00786071  .00000669  00000+0  81471-4 0  9998
2 28499  98.2385   1.4129 0085424   9.7197 350.5644 14.84580822112027
CZ-2D R/B               
1 28738U 05024B   25205.53844449  .00018584  00000+0  39575-3 0  9991
2 28738  97.3672 210.1478 0008010 130.9797 229.2146 15.44960571104410
ALOS (DAICHI)           
1 28931U 06002A   25206.46069589  .00001413  00000+0  25034-3 0  9998
2 28931  98.0861 159.2058 0000841  59.8770 300.2519 14.68827084 40491
H-2A R/B                
1 28932U 06002B   25206.16397522  .00006367  00000+0  36738-3 0  9993
2 28932  98.2167 329.9945 0057019 293.4578  66.0663 15.11371446 60118
RESURS-DK 1             
1 29228U 06021A   25205.87953163  .00002458  00000+0  15258-3 0  9990
2 29228  69.9346 105.5484 0001985 144.7301 215.3996 15.11130548 53093
CZ-4B R/B               
1 29507U 06046C   25205.74523628  .00004200  00000+0  23115-3 0  9990
2 29507  97.5930 246.2625 0034571 338.1902  21.7856 15.14095202 25523
CZ-2C R/B               
1 31114U 07010B   25205.95125553  .00000107  00000+0  68330-4 0  9998
2 31114  98.3836 325.8120 0058127 235.7677 123.7985 14.20138984947397
COSMO-SKYMED 1          
1 31598U 07023A   25206.50850226  .00001464  00000+0  14065-3 0  9994
2 31598  97.8881  31.0987 0001266  87.5874 272.5490 14.94606826981015
GENESIS 2               
1 31789U 07028A   25206.50128784  .00172688  17773-4  57541-3 0  9991
2 31789  64.4683 251.6054 0026261 304.2456  55.6214 15.89501950   247
COSMOS 2428             
1 31792U 07029A   25205.85130132  .00000299  00000+0  18654-3 0  9993
2 31792  70.9439 321.6113 0005345 238.5676 121.4923 14.12891359931993
SL-16 R/B               
1 31793U 07029B   25205.70124634 -.00000110  00000+0 -32369-4 0  9992
2 31793  70.9769 291.6150 0002662 281.7962 189.0693 14.14793358933127
KORONAS-FOTON           
1 33504U 09003A   25205.92189403  .00011443  00000+0  31167-3 0  9990
2 33504  82.4341 151.4997 0009765 250.0559 109.9633 15.37305720910686
CZ-2C R/B               
1 37731U 11030B   25206.50397413  .00001401  00000+0  18634-3 0  9993
2 37731  97.8171 163.9889 0053797  11.2803 103.4883 14.80301111756472
H-2A R/B                
1 38341U 12025E   25205.83410503  .00002869  00000+0  27548-3 0  9990
2 38341  98.4378 150.5622 0045808 338.9815  20.9518 14.93206878714198
SHIJIAN-16 (SJ-16)      
1 39358U 13057A   25206.49447545  .00000774  00000+0  80063-4 0  9999
2 39358  74.9706 254.8750 0018160 303.1758  56.7687 14.91460801637691
SL-4 R/B                
1 39679U 14021B   25206.17153503  .00008189  00000+0  22435-3 0  9996
2 39679  51.6097   1.1157 0111374 357.9886   2.0632 15.32224508621635
ALOS-2                  
1 39766U 14029A   25206.47249874  .00001568  00000+0  21682-3 0  9998
2 39766  97.9230 303.3268 0001511  97.5493 262.5890 14.79478987603301
YAOGAN-29               
1 41038U 15069A   25206.52367858  .00000440  00000+0  61349-4 0  9990
2 41038  98.0337 229.1221 0002180  48.4025 311.7374 14.82675272522213
ASTRO-H (HITOMI)        
1 41337U 16012A   25205.90438073  .00002988  00000+0  18246-3 0  9996
2 41337  31.0013  24.4185 0009929 205.6589 154.3557 15.08215039517799
HXMT (HUIYAN)           
1 42758U 17034A   25206.43683851  .00003211  00000+0  18293-3 0  9996
2 42758  43.0130 196.8514 0035559 242.0868 117.6376 15.14153854448071
CZ-2C R/B               
1 43521U 18054D   25205.87293903  .00033033  00000+0  47321-3 0  9999
2 43521  35.1390  39.1489 0031892 249.8483 109.8812 15.54533351393013
SAOCOM 1A               
1 43641U 18076A   25206.51995015  .00000443  00000+0  62262-4 0  9992
2 43641  97.8891  32.9456 0001387  89.4102 270.7270 14.82151081367714
H-2A R/B                
1 43682U 18084L   25205.93565533  .00014930  00000+0  48566-3 0  9995
2 43682  98.8791  11.6218 0032321  88.5139 271.9800 15.31510724370816
SAOCOM 1B               
1 46265U 20059A   25206.48371867  .00000393  00000+0  55902-4 0  9997
2 46265  97.8895  32.0140 0001481  87.7597 272.3786 14.82159824265101
CSS (TIANHE)            
1 48274U 21035A   25206.26626227  .00017472  00000+0  23882-3 0  9990
2 48274  41.4647 149.8330 0006996 343.7769  16.2843 15.57016293242090
COSMOS 2550             
1 48865U 21056A   25206.52978023  .00005757  00000+0  18072-3 0  9990
2 48865  67.1435   8.1129 0008336 269.5206  90.4993 15.33824845228638
CZ-2C R/B               
1 52794U 22058K   25205.99397843  .00014655  00000+0  33922-3 0  9992
2 52794  50.1938  36.6383 0055252 331.4927  28.3020 15.41065809174884
GSLV R/B                
1 54149U 22138AN  25206.47416215  .00001794  00000+0  16112-3 0  9998
2 54149  87.3763 242.4373 0019662 254.6066 105.2993 14.94978895149969
XRISM                   
1 57800U 23137A   25206.49686082  .00004496  00000+0  27612-3 0  9997
2 57800  31.0029 309.5288 0008021 277.7653  82.2074 15.08406367103502
ACS3                    
1 59588U 24077B   25205.91816006  .00013194  00000+0  12620-1 0  9999
2 59588  97.4384 192.1986 0075731  49.8242 310.9514 13.79185336 62692
